{
  "norad_id": 51465,
  "name": "STARLINK-3401",
  "history": [
    {
      "epoch": "2026-03-28T18:23:07.878624",
      "apogee_km": 540.6381812772088,
      "perigee_km": 538.8187826554531,
      "latitude_deg": -35.152485470129264,
      "longitude_deg": 120.04208736005239,
      "semi_major_axis_km": 6917.865481966331,
      "eccentricity": 0.0001315,
      "inclination_deg": 53.2165,
      "raan_deg": 193.4843,
      "arg_perigee_deg": 83.8248,
      "mean_anomaly_deg": 276.2894,
      "mean_motion_rev_day": 15.08844877
    }
  ]
}