{"fetched_at":"2026-03-30T13:17:50Z","count":15418,"tles":[{"name":"STARLINK-3401","line1":"1 51465U 22010K   26087.76606341  .00001035  00000+0  83110-4 0  9997","line2":"2 51465  53.2165 193.4843 0001315  83.8248 276.2894 15.08844877230207","category":"Starlink"}]}